format  = 'OEF2.0'       ! file format
rectype = 'ML'           ! record type (1L/ML)
refsys  = ECLM J2000     ! default reference system
END_OF_HEADER
410777
! Equinoctial elements: a, e*sin(LP), e*cos(LP), tan(i/2)*sin(LN), tan(i/2)*cos(LN), mean long.
 EQU   1.1626729655135080E+00  -0.460663793806628   0.174881261190031    0.004551532871392    0.027004949777079  25.7134988627747
 MJD     56013.440131620 TDT
 MAG  22.130  0.150
! Non-grav parameters: model used, actual number in use, dimension, list of solve for parameters to be currently determined
 LSP   1  2    7    2
! Vector of dynamical parameters
 NGR   0.00000000000000E+00 -1.69824877403593E-05
! A priori value and standard deviation (only Yarkovsky effect)
 APR YAR   0.00000000000000E+00  3.25000000000000E-04
! RMS    2.23435E-09   3.24388E-08   6.16972E-08   6.46816E-09   5.19933E-08   6.23879E-06   3.25873E-04
! EIG   3.16388E-10   3.73617E-09   1.23444E-08   2.25802E-08   5.22095E-08   1.25320E-07   3.25873E-04
! WEA   0.00000   0.00001  -0.00002  -0.00000   0.00000   0.00005   1.00000
 COV   4.992313091202507E-18 -1.104365744583233E-17  4.780233799599867E-17
 COV   1.993882647361165E-18 -6.566388906143269E-18  2.444757739735306E-15
 COV   3.618191994568994E-13  1.052272594002210E-15 -1.635436787454610E-15
 COV   2.850754530584107E-17 -2.966010785127604E-16 -1.760023599943745E-13
 COV   1.504994652161614E-12  3.806545246985095E-15  6.139740270942822E-17
 COV   2.793980823909445E-17  3.393763209157774E-13 -1.823533601883815E-12
 COV   4.183705057991118E-17  1.598442049983265E-16 -6.681292295574453E-16
 COV  -3.478838796935473E-14  2.703306434650003E-15  2.857320489888835E-14
 COV   2.237925436788866E-13  3.892245993771863E-11  3.254044992379763E-10
 COV   1.061933498525199E-07
 NOR   9.862712157040118E+18  6.924193911323452E+17 -6.926005836730353E+17
 NOR   1.168043304133580E+17  9.387452232774162E+15  9.244737490635040E+15
 NOR  -8.362014314797723E+13  5.786608509624872E+16 -4.710499875210568E+16
 NOR  -5.955248076080067E+15  2.206903500093004E+15  6.779364881946936E+14
 NOR  -6.072140796204396E+12  5.124152595121412E+16 -1.631030432779270E+16
 NOR   1.354060887082589E+14 -6.663593088871106E+14  5.943575660372856E+12
 NOR   6.826410670159792E+16 -5.438266428499001E+15  1.208902578266149E+14
 NOR  -9.302674137091125E+11  8.755287996949314E+14  8.223407322639426E+12
 NOR  -8.976155248190585E+10  8.986131638050367E+12 -8.006250236571413E+10
 NOR   7.276599398133883E+08
!MOID  0.00248    0
!NODES -0.19846 -0.02490
